ADRAS-J                 
1 58992U 24034A   24255.94626528  .00010503  00000+0  94133-3 0  9997
2 58992  98.2209 233.0098 0044974 122.1105 238.4491 14.95207413 30820
